{
  "links" : {
    "next" : "https://api.nasa.gov/neo/rest/v1/feed?start_date=2002-04-23&end_date=2002-04-23&detailed=true&api_key=t0TVs3DtDT2H8Oy2Zy8m2eVrNsAVKAexjcZXUckd",
    "prev" : "https://api.nasa.gov/neo/rest/v1/feed?start_date=2002-04-21&end_date=2002-04-21&detailed=true&api_key=t0TVs3DtDT2H8Oy2Zy8m2eVrNsAVKAexjcZXUckd",
    "self" : "https://api.nasa.gov/neo/rest/v1/feed?start_date=2002-04-22&end_date=2002-04-22&detailed=true&api_key=t0TVs3DtDT2H8Oy2Zy8m2eVrNsAVKAexjcZXUckd"
  },
  "element_count" : 5,
  "near_earth_objects" : {
    "2002-04-22" : [ {
      "links" : {
        "self" : "https://api.nasa.gov/neo/rest/v1/neo/3768016?api_key=t0TVs3DtDT2H8Oy2Zy8m2eVrNsAVKAexjcZXUckd"
      },
      "neo_reference_id" : "3768016",
      "name" : "(2017 BY93)",
      "nasa_jpl_url" : "http://ssd.jpl.nasa.gov/sbdb.cgi?sstr=3768016",
      "absolute_magnitude_h" : 23.1,
      "estimated_diameter" : {
        "kilometers" : {
          "estimated_diameter_min" : 0.063760979,
          "estimated_diameter_max" : 0.1425738833
        },
        "meters" : {
          "estimated_diameter_min" : 63.7609789875,
          "estimated_diameter_max" : 142.5738833281
        },
        "miles" : {
          "estimated_diameter_min" : 0.0396192233,
          "estimated_diameter_max" : 0.0885912765
        },
        "feet" : {
          "estimated_diameter_min" : 209.1895703015,
          "estimated_diameter_max" : 467.7620993781
        }
      },
      "is_potentially_hazardous_asteroid" : false,
      "close_approach_data" : [ {
        "close_approach_date" : "2002-04-22",
        "epoch_date_close_approach" : 1019458800000,
        "relative_velocity" : {
          "kilometers_per_second" : "16.0113142729",
          "kilometers_per_hour" : "57640.7313825815",
          "miles_per_hour" : "35815.7088971379"
        },
        "miss_distance" : {
          "astronomical" : "0.3980887624",
          "lunar" : "154.8565216064",
          "kilometers" : "59553232",
          "miles" : "37004660"
        },
        "orbiting_body" : "Earth"
      } ],
      "orbital_data" : {
        "orbit_id" : "29",
        "orbit_determination_date" : "2017-06-02 06:17:28",
        "orbit_uncertainty" : "3",
        "minimum_orbit_intersection" : ".000436928",
        "jupiter_tisserand_invariant" : "4.809",
        "epoch_osculation" : "2458000.5",
        "eccentricity" : ".5862273512834647",
        "semi_major_axis" : "1.300419544775263",
        "inclination" : "4.373603626605576",
        "ascending_node_longitude" : "155.9915269052871",
        "orbital_period" : "541.6561257592202",
        "perihelion_distance" : ".5380780394844118",
        "perihelion_argument" : "103.1002352402634",
        "aphelion_distance" : "2.062761050066115",
        "perihelion_time" : "2457861.406234502426",
        "mean_anomaly" : "92.44565545887637",
        "mean_motion" : ".6646283183733974",
        "equinox" : "J2000"
      }
    }, {
      "links" : {
        "self" : "https://api.nasa.gov/neo/rest/v1/neo/3774009?api_key=t0TVs3DtDT2H8Oy2Zy8m2eVrNsAVKAexjcZXUckd"
      },
      "neo_reference_id" : "3774009",
      "name" : "(2017 HA1)",
      "nasa_jpl_url" : "http://ssd.jpl.nasa.gov/sbdb.cgi?sstr=3774009",
      "absolute_magnitude_h" : 23.174,
      "estimated_diameter" : {
        "kilometers" : {
          "estimated_diameter_min" : 0.0616247225,
          "estimated_diameter_max" : 0.1377970686
        },
        "meters" : {
          "estimated_diameter_min" : 61.6247224961,
          "estimated_diameter_max" : 137.7970685958
        },
        "miles" : {
          "estimated_diameter_min" : 0.0382918154,
          "estimated_diameter_max" : 0.0856231023
        },
        "feet" : {
          "estimated_diameter_min" : 202.180854554,
          "estimated_diameter_max" : 452.0901345318
        }
      },
      "is_potentially_hazardous_asteroid" : false,
      "close_approach_data" : [ {
        "close_approach_date" : "2002-04-22",
        "epoch_date_close_approach" : 1019458800000,
        "relative_velocity" : {
          "kilometers_per_second" : "9.9973347247",
          "kilometers_per_hour" : "35990.4050088936",
          "miles_per_hour" : "22363.0380456651"
        },
        "miss_distance" : {
          "astronomical" : "0.1507421936",
          "lunar" : "58.638710022",
          "kilometers" : "22550710",
          "miles" : "14012362"
        },
        "orbiting_body" : "Earth"
      } ],
      "orbital_data" : {
        "orbit_id" : "14",
        "orbit_determination_date" : "2017-06-24 06:19:51",
        "orbit_uncertainty" : "6",
        "minimum_orbit_intersection" : ".0952113",
        "jupiter_tisserand_invariant" : "4.662",
        "epoch_osculation" : "2458000.5",
        "eccentricity" : ".2231245053696101",
        "semi_major_axis" : "1.406027092132615",
        "inclination" : "18.49508982871804",
        "ascending_node_longitude" : "207.6823375302296",
        "orbital_period" : "608.9602716877233",
        "perihelion_distance" : "1.092307992664254",
        "perihelion_argument" : "15.72824993900821",
        "aphelion_distance" : "1.719746191600976",
        "perihelion_time" : "2457882.400086695763",
        "mean_anomaly" : "69.81731118795805",
        "mean_motion" : ".5911715701949914",
        "equinox" : "J2000"
      }
    } ]
  }
}